CCSDS_OMM_VERS = 2.0
CREATION_DATE  = 
ORIGINATOR     = 

OBJECT_NAME    = STARLINK-36102
OBJECT_ID      = 2025-281B
CENTER_NAME    = EARTH
REF_FRAME      = TEME
TIME_SYSTEM    = UTC
MEAN_ELEMENT_THEORY = SGP/SGP4

EPOCH          = 2025-12-16T22:00:03.000096
MEAN_MOTION    = 15.80433654
ECCENTRICITY   = .00014593
INCLINATION    = 43.0007
RA_OF_ASC_NODE = 96.6504
ARG_OF_PERICENTER = 275.4492
MEAN_ANOMALY   = 350.4704

EPHEMERIS_TYPE = 0
CLASSIFICATION_TYPE = U
NORAD_CAT_ID   = 66849
ELEMENT_SET_NO = 999
REV_AT_EPOCH   = 207
BSTAR          = -.74673068E-2
MEAN_MOTION_DOT = -.1286557E-1
MEAN_MOTION_DDOT = 0

CCSDS_OMM_VERS = 2.0
CREATION_DATE  = 
ORIGINATOR     = 

OBJECT_NAME    = STARLINK-36105
OBJECT_ID      = 2025-281C
CENTER_NAME    = EARTH
REF_FRAME      = TEME
TIME_SYSTEM    = UTC
MEAN_ELEMENT_THEORY = SGP/SGP4

EPOCH          = 2025-12-16T22:00:03.000096
MEAN_MOTION    = 15.80338596
ECCENTRICITY   = .00017163
INCLINATION    = 43.0003
RA_OF_ASC_NODE = 96.6437
ARG_OF_PERICENTER = 272.1729
MEAN_ANOMALY   = 356.4779

EPHEMERIS_TYPE = 0
CLASSIFICATION_TYPE = U
NORAD_CAT_ID   = 66850
ELEMENT_SET_NO = 999
REV_AT_EPOCH   = 207
BSTAR          = -.75588748E-2
MEAN_MOTION_DOT = -.1295522E-1
MEAN_MOTION_DDOT = 0

CCSDS_OMM_VERS = 2.0
CREATION_DATE  = 
ORIGINATOR     = 

OBJECT_NAME    = STARLINK-36094
OBJECT_ID      = 2025-281D
CENTER_NAME    = EARTH
REF_FRAME      = TEME
TIME_SYSTEM    = UTC
MEAN_ELEMENT_THEORY = SGP/SGP4

EPOCH          = 2025-12-16T22:00:03.000096
MEAN_MOTION    = 15.80295888
ECCENTRICITY   = .00014922
INCLINATION    = 43.0003
RA_OF_ASC_NODE = 96.6377
ARG_OF_PERICENTER = 279.0388
MEAN_ANOMALY   = 351.9371

EPHEMERIS_TYPE = 0
CLASSIFICATION_TYPE = U
NORAD_CAT_ID   = 66851
ELEMENT_SET_NO = 999
REV_AT_EPOCH   = 207
BSTAR          = -.76430786E-2
MEAN_MOTION_DOT = -.1305751E-1
MEAN_MOTION_DDOT = 0

CCSDS_OMM_VERS = 2.0
CREATION_DATE  = 
ORIGINATOR     = 

OBJECT_NAME    = STARLINK-35992
OBJECT_ID      = 2025-281E
CENTER_NAME    = EARTH
REF_FRAME      = TEME
TIME_SYSTEM    = UTC
MEAN_ELEMENT_THEORY = SGP/SGP4

EPOCH          = 2025-12-16T22:00:03.000096
MEAN_MOTION    = 15.80255740
ECCENTRICITY   = .00016168
INCLINATION    = 43.0006
RA_OF_ASC_NODE = 96.6316
ARG_OF_PERICENTER = 274.7056
MEAN_ANOMALY   = 358.5496

EPHEMERIS_TYPE = 0
CLASSIFICATION_TYPE = U
NORAD_CAT_ID   = 66852
ELEMENT_SET_NO = 999
REV_AT_EPOCH   = 207
BSTAR          = -.77103312E-2
MEAN_MOTION_DOT = -.1338366E-1
MEAN_MOTION_DDOT = 0

CCSDS_OMM_VERS = 2.0
CREATION_DATE  = 
ORIGINATOR     = 

OBJECT_NAME    = STARLINK-35986
OBJECT_ID      = 2025-281F
CENTER_NAME    = EARTH
REF_FRAME      = TEME
TIME_SYSTEM    = UTC
MEAN_ELEMENT_THEORY = SGP/SGP4

EPOCH          = 2025-12-16T22:00:03.000096
MEAN_MOTION    = 15.80146711
ECCENTRICITY   = .00015785
INCLINATION    = 43.0006
RA_OF_ASC_NODE = 96.6250
ARG_OF_PERICENTER = 275.1454
MEAN_ANOMALY   = 0.9115

EPHEMERIS_TYPE = 0
CLASSIFICATION_TYPE = U
NORAD_CAT_ID   = 66853
ELEMENT_SET_NO = 999
REV_AT_EPOCH   = 207
BSTAR          = -.78343823E-2
MEAN_MOTION_DOT = -.1351455E-1
MEAN_MOTION_DDOT = 0

CCSDS_OMM_VERS = 2.0
CREATION_DATE  = 
ORIGINATOR     = 

OBJECT_NAME    = STARLINK-36087
OBJECT_ID      = 2025-281G
CENTER_NAME    = EARTH
REF_FRAME      = TEME
TIME_SYSTEM    = UTC
MEAN_ELEMENT_THEORY = SGP/SGP4

EPOCH          = 2025-12-16T22:00:03.000096
MEAN_MOTION    = 15.80046576
ECCENTRICITY   = .0001793
INCLINATION    = 43.0007
RA_OF_ASC_NODE = 96.6180
ARG_OF_PERICENTER = 269.2074
MEAN_ANOMALY   = 9.5497

EPHEMERIS_TYPE = 0
CLASSIFICATION_TYPE = U
NORAD_CAT_ID   = 66854
ELEMENT_SET_NO = 999
REV_AT_EPOCH   = 207
BSTAR          = -.79466695E-2
MEAN_MOTION_DOT = -.136321E-1
MEAN_MOTION_DDOT = 0

CCSDS_OMM_VERS = 2.0
CREATION_DATE  = 
ORIGINATOR     = 

OBJECT_NAME    = STARLINK-36090
OBJECT_ID      = 2025-281H
CENTER_NAME    = EARTH
REF_FRAME      = TEME
TIME_SYSTEM    = UTC
MEAN_ELEMENT_THEORY = SGP/SGP4

EPOCH          = 2025-12-16T22:00:03.000096
MEAN_MOTION    = 15.79984739
ECCENTRICITY   = .00016853
INCLINATION    = 43.0008
RA_OF_ASC_NODE = 96.6121
ARG_OF_PERICENTER = 275.3080
MEAN_ANOMALY   = 5.8366

EPHEMERIS_TYPE = 0
CLASSIFICATION_TYPE = U
NORAD_CAT_ID   = 66855
ELEMENT_SET_NO = 999
REV_AT_EPOCH   = 194
BSTAR          = -.80124801E-2
MEAN_MOTION_DOT = -.1369706E-1
MEAN_MOTION_DDOT = 0

CCSDS_OMM_VERS = 2.0
CREATION_DATE  = 
ORIGINATOR     = 

OBJECT_NAME    = STARLINK-36072
OBJECT_ID      = 2025-281J
CENTER_NAME    = EARTH
REF_FRAME      = TEME
TIME_SYSTEM    = UTC
MEAN_ELEMENT_THEORY = SGP/SGP4

EPOCH          = 2025-12-16T22:00:03.000096
MEAN_MOTION    = 15.79892435
ECCENTRICITY   = .00016641
INCLINATION    = 43.0007
RA_OF_ASC_NODE = 96.6054
ARG_OF_PERICENTER = 274.7834
MEAN_ANOMALY   = 8.9416

EPHEMERIS_TYPE = 0
CLASSIFICATION_TYPE = U
NORAD_CAT_ID   = 66856
ELEMENT_SET_NO = 999
REV_AT_EPOCH   = 207
BSTAR          = -.80658799E-2
MEAN_MOTION_DOT = -.1372591E-1
MEAN_MOTION_DDOT = 0

CCSDS_OMM_VERS = 2.0
CREATION_DATE  = 
ORIGINATOR     = 

OBJECT_NAME    = STARLINK-36083
OBJECT_ID      = 2025-281K
CENTER_NAME    = EARTH
REF_FRAME      = TEME
TIME_SYSTEM    = UTC
MEAN_ELEMENT_THEORY = SGP/SGP4

EPOCH          = 2025-12-16T22:00:03.000096
MEAN_MOTION    = 15.79840553
ECCENTRICITY   = .00015201
INCLINATION    = 43.0006
RA_OF_ASC_NODE = 96.5996
ARG_OF_PERICENTER = 276.4324
MEAN_ANOMALY   = 9.6093

EPHEMERIS_TYPE = 0
CLASSIFICATION_TYPE = U
NORAD_CAT_ID   = 66857
ELEMENT_SET_NO = 999
REV_AT_EPOCH   = 207
BSTAR          = -.81336947E-2
MEAN_MOTION_DOT = -.1379829E-1
MEAN_MOTION_DDOT = 0

CCSDS_OMM_VERS = 2.0
CREATION_DATE  = 
ORIGINATOR     = 

OBJECT_NAME    = STARLINK-35118
OBJECT_ID      = 2025-281L
CENTER_NAME    = EARTH
REF_FRAME      = TEME
TIME_SYSTEM    = UTC
MEAN_ELEMENT_THEORY = SGP/SGP4

EPOCH          = 2025-12-16T22:00:03.000096
MEAN_MOTION    = 15.79780764
ECCENTRICITY   = .00016262
INCLINATION    = 43.0009
RA_OF_ASC_NODE = 96.5933
ARG_OF_PERICENTER = 277.5742
MEAN_ANOMALY   = 10.8406

EPHEMERIS_TYPE = 0
CLASSIFICATION_TYPE = U
NORAD_CAT_ID   = 66858
ELEMENT_SET_NO = 999
REV_AT_EPOCH   = 185
BSTAR          = -.82036656E-2
MEAN_MOTION_DOT = -.1387043E-1
MEAN_MOTION_DDOT = 0

CCSDS_OMM_VERS = 2.0
CREATION_DATE  = 
ORIGINATOR     = 

OBJECT_NAME    = STARLINK-35646
OBJECT_ID      = 2025-281M
CENTER_NAME    = EARTH
REF_FRAME      = TEME
TIME_SYSTEM    = UTC
MEAN_ELEMENT_THEORY = SGP/SGP4

EPOCH          = 2025-12-16T22:00:03.000096
MEAN_MOTION    = 15.79696886
ECCENTRICITY   = .00015415
INCLINATION    = 43.0008
RA_OF_ASC_NODE = 96.5874
ARG_OF_PERICENTER = 279.7475
MEAN_ANOMALY   = 11.1798

EPHEMERIS_TYPE = 0
CLASSIFICATION_TYPE = U
NORAD_CAT_ID   = 66859
ELEMENT_SET_NO = 999
REV_AT_EPOCH   = 207
BSTAR          = -.82758497E-2
MEAN_MOTION_DOT = -.1393033E-1
MEAN_MOTION_DDOT = 0

CCSDS_OMM_VERS = 2.0
CREATION_DATE  = 
ORIGINATOR     = 

OBJECT_NAME    = STARLINK-35987
OBJECT_ID      = 2025-281N
CENTER_NAME    = EARTH
REF_FRAME      = TEME
TIME_SYSTEM    = UTC
MEAN_ELEMENT_THEORY = SGP/SGP4

EPOCH          = 2025-12-16T22:00:03.000096
MEAN_MOTION    = 15.79264881
ECCENTRICITY   = .00017867
INCLINATION    = 43.0006
RA_OF_ASC_NODE = 96.5550
ARG_OF_PERICENTER = 273.7827
MEAN_ANOMALY   = 29.7768

EPHEMERIS_TYPE = 0
CLASSIFICATION_TYPE = U
NORAD_CAT_ID   = 66860
ELEMENT_SET_NO = 999
REV_AT_EPOCH   = 207
BSTAR          = -.89229697E-2
MEAN_MOTION_DOT = -.1463286E-1
MEAN_MOTION_DDOT = 0

