STARLINK-36102          
1 66849U 25281B   25350.91670139 -.01286557  00000+0 -74673-2 0  9996
2 66849  43.0007  96.6504 0001459 275.4492 350.4704 15.80433654  2072
STARLINK-36105          
1 66850U 25281C   25350.91670139 -.01295522  00000+0 -75589-2 0  9997
2 66850  43.0003  96.6437 0001716 272.1729 356.4779 15.80338596  2075
STARLINK-36094          
1 66851U 25281D   25350.91670139 -.01305751  00000+0 -76431-2 0  9991
2 66851  43.0003  96.6377 0001492 279.0388 351.9371 15.80295888  2071
STARLINK-35992          
1 66852U 25281E   25350.91670139 -.01338366  00000+0 -77103-2 0  9997
2 66852  43.0006  96.6316 0001616 274.7056 358.5496 15.80255740  2074
STARLINK-35986          
1 66853U 25281F   25350.91670139 -.01351455  00000+0 -78344-2 0  9990
2 66853  43.0006  96.6250 0001578 275.1454   0.9115 15.80146711  2079
STARLINK-36087          
1 66854U 25281G   25350.91670139 -.01363210  00000+0 -79467-2 0  9990
2 66854  43.0007  96.6180 0001793 269.2074   9.5497 15.80046576  2070
STARLINK-36090          
1 66855U 25281H   25350.91670139 -.01369706  00000+0 -80125-2 0  9990
2 66855  43.0008  96.6121 0001685 275.3080   5.8366 15.79984739  1941
STARLINK-36072          
1 66856U 25281J   25350.91670139 -.01372591  00000+0 -80659-2 0  9999
2 66856  43.0007  96.6054 0001664 274.7834   8.9416 15.79892435  2079
STARLINK-36083          
1 66857U 25281K   25350.91670139 -.01379829  00000+0 -81337-2 0  9995
2 66857  43.0006  96.5996 0001520 276.4324   9.6093 15.79840553  2070
STARLINK-35118          
1 66858U 25281L   25350.91670139 -.01387043  00000+0 -82037-2 0  9991
2 66858  43.0009  96.5933 0001626 277.5742  10.8406 15.79780764  1852
STARLINK-35646          
1 66859U 25281M   25350.91670139 -.01393033  00000+0 -82758-2 0  9998
2 66859  43.0008  96.5874 0001541 279.7475  11.1798 15.79696886  2073
STARLINK-35987          
1 66860U 25281N   25350.91670139 -.01463286  00000+0 -89230-2 0  9990
2 66860  43.0006  96.5550 0001786 273.7827  29.7768 15.79264881  2078
